00001    3.34  0.12 K156R 138.66222   72.65410   80.32720   10.59230  0.0757825  0.21402349   2.7679724  0 MPO328644  6541 107 1802-2014 0.60 M-v 30h MPC        0000              (1) Ceres      20140924
